ONEWEB-0363             
1 49289U 21090L   24216.89897850  .00000028  00000+0  35856-4 0  9993
2 49289  87.9182  50.1688 0002159  87.2668 272.8713 13.20770790140248
ONEWEB-0364             
1 49290U 21090M   24216.93684872  .00000093  00000+0  19766-3 0  9991
2 49290  87.9182  50.1871 0001877  84.5066 275.6282 13.20773726141382
ONEWEB-0365             
1 49291U 21090N   24216.91137369  .00000052  00000+0  97217-4 0  9997
2 49291  87.9107  80.7150 0001676  80.7763 279.3559 13.19726597136438
ONEWEB-0366             
1 49292U 21090P   24216.81160127  .00000632  00000+0  16712-2 0  9998
2 49292  87.8927  65.4545 0001731  80.5407 279.5919 13.14500615137913
ONEWEB-0367             
1 49293U 21090Q   24216.89739489  .00000023  00000+0  25037-4 0  9996
2 49293  87.9182  50.1637 0001784  80.1456 279.9879 13.20768039139766
ONEWEB-0368             
1 49294U 21090R   24216.94631976  .00000100  00000+0  21326-3 0  9997
2 49294  87.9182  50.1845 0002229  63.6035 296.5327 13.20773613140929
ONEWEB-0369             
1 49295U 21090S   24216.90663341  .00000023  00000+0  25887-4 0  9996
2 49295  87.9115  80.7222 0001722  77.5068 282.6257 13.19727418136429
ONEWEB-0370             
1 49296U 21090T   24216.90687265 -.00000065  00000+0 -19181-3 0  9995
2 49296  87.9182  50.1664 0001770  99.9817 260.1516 13.20770456139804
